ONEWEB-0528             
1 54643U 22166B   23267.55847217 -.00000637  00000+0 -15750-2 0  9995
2 54643  87.9172  82.4003 0001818  86.9851 273.1491 13.21827288 39887
ONEWEB-0539             
1 54644U 22166C   23267.52062787  .00000078  00000+0  15806-3 0  9994
2 54644  87.9176  82.4076 0001788  99.9576 260.1760 13.21827924 39877
ONEWEB-0540             
1 54645U 22166D   23267.51432663  .00000064  00000+0  12438-3 0  9991
2 54645  87.9174  82.4336 0001737  97.8150 262.3181 13.21824966 39867
ONEWEB-0542             
1 54646U 22166E   23267.52903281 -.00000120  00000+0 -32153-3 0  9993
2 54646  87.9172  82.4061 0001416 108.0156 252.1132 13.21825204 39876
ONEWEB-0545             
1 54647U 22166F   23267.57110749 -.00000037  00000+0 -12043-3 0  9991
2 54647  87.9174  82.4378 0001950 108.5856 251.5489 13.21826066 40311
ONEWEB-0580             
1 54648U 22166G   23267.54585635 -.00000029  00000+0 -10277-3 0  9997
2 54648  87.9172  82.3990 0001269 108.0594 252.0678 13.21824234 40340
ONEWEB-0582             
1 54649U 22166H   23267.51011783  .00000162  00000+0  36071-3 0  9999
2 54649  87.9172  82.4437 0001944  96.2823 263.8532 13.21827112 39852
ONEWEB-0583             
1 54650U 22166J   23267.52272935  .00000061  00000+0  11711-3 0  9992
2 54650  87.9175  82.4487 0001918  77.9337 282.2012 13.21827708 39869
